0 THORAD AGENA D DEB
1 18785U 70025PQ  13281.67947718  .00000150  00000-0  26795-3 0  1032
2 18785 100.0616 344.2098 0001876 332.6384 181.7461 13.59146041289490
0 THORAD AGENA D DEB
1 18785U 70025PQ  13286.14377726  .00000183  00000-0  31245-3 0  1059
2 18785 100.0612 348.7874 0001855 318.3026 068.4700 13.59147784290100
0 THORAD AGENA D DEB
1 18785U 70025PQ  13289.15645300  .00000183  00000-0  31245-3 0  1060
2 18785 100.0566 351.8682 0002165 313.5081 046.5922 13.59149410290519
0 THORAD AGENA D DEB
1 18785U 70025PQ  13291.02128826  .00000207  00000-0  34611-3 0  1076
2 18785 100.0601 353.7889 0001986 298.6159 181.3643 13.59150489290761
0 THORAD AGENA D DEB
1 18785U 70025PQ  13292.40806806  .00000220  00000-0  36371-3 0  1081
2 18785 100.0602 355.2109 0002162 292.2066 129.7566 13.59151549290957
0 THORAD AGENA D DEB
1 18785U 70025PQ  13293.67887637  .00000229  00000-0  37566-3 0  1099
2 18785 100.0596 356.5133 0002034 289.3768 227.4187 13.59152124291129
0 THORAD AGENA D DEB
1 18785U 70025PQ  13295.12492619  .00000224  00000-0  36890-3 0  1109
2 18785 100.0597 357.9958 0002101 285.2850 103.3580 13.59153130291321
